SL-14 R/B               
1 18749U 88001B   25326.36751451  .00000622  00000+0  69335-4 0  9995
2 18749  82.5111 296.3110 0016767 230.1367 129.8375 14.85392157 26097
COSMOS 1933             
1 18958U 88020A   25326.17267848  .00005156  00000+0  26041-3 0  9992
2 18958  82.5138 357.1978 0003867 189.5544 170.5617 15.16878454 33923
SL-3 R/B                
1 19046U 88032B   25326.36887090  .00006681  00000+0  32510-3 0  9994
2 19046  97.5061 305.2369 0024970 246.6264 113.2343 15.18448471 35817
SL-16 R/B               
1 19120U 88039B   25326.31246289  .00000180  00000+0  10765-3 0  9994
2 19120  71.0142 295.5897 0020562 150.3009 209.9288 14.19591539943144
COSMOS 1953             
1 19210U 88050A   25326.32133300  .00007059  00000+0  26781-3 0  9994
2 19210  82.5088 266.0626 0013215 133.8243 226.4091 15.26598675 21393
SL-8 R/B                
1 19257U 88053B   25326.39466471  .00000250  00000+0  89618-4 0  9998
2 19257  74.0467 310.2173 0019605 161.1608 351.0694 14.38841914961169
COSMOS 1975             
1 19573U 88093A   25326.19429106  .00010822  00000+0  41854-3 0  9990
2 19573  82.5219 225.3866 0011058 179.6585 180.4663 15.26030688  3002
SL-14 R/B               
1 19574U 88093B   25326.04033079  .00000516  00000+0  56760-4 0  9997
2 19574  82.5292 143.0928 0021689  37.7871  84.0375 14.85517603985056
SL-16 R/B               
1 19650U 88102B   25326.46851354  .00000317  00000+0  18410-3 0  9991
2 19650  71.0010  17.0963 0014203 183.3817 176.7212 14.16133561911715
INTERCOSMOS 24          
1 20261U 89080A   25326.40455517  .00000904  00000+0  26269-3 0  9995
2 20261  82.6055 174.1754 1188437 181.6850 178.0075 12.59389892653298
SL-14 R/B               
1 20262U 89080C   25326.18219281  .00000458  00000+0  12911-3 0  9990
2 20262  82.5939 242.2128 1231058  70.5581 302.4201 12.50389732646713
DELTA 1 R/B             
1 20323U 89089B   25326.22153664  .00000429  00000+0  11464-3 0  9994
2 20323  97.0768 185.7093 0070732 101.8943 259.0197 14.50548234880158
