CCSDS_OMM_VERS = 2.0
CREATION_DATE  = 
ORIGINATOR     = 

OBJECT_NAME    = SL-14 R/B
OBJECT_ID      = 1988-001B
CENTER_NAME    = EARTH
REF_FRAME      = TEME
TIME_SYSTEM    = UTC
MEAN_ELEMENT_THEORY = SGP/SGP4

EPOCH          = 2025-11-22T08:49:13.253664
MEAN_MOTION    = 14.85392157
ECCENTRICITY   = .0016767
INCLINATION    = 82.5111
RA_OF_ASC_NODE = 296.3110
ARG_OF_PERICENTER = 230.1367
MEAN_ANOMALY   = 129.8375

EPHEMERIS_TYPE = 0
CLASSIFICATION_TYPE = U
NORAD_CAT_ID   = 18749
ELEMENT_SET_NO = 999
REV_AT_EPOCH   = 2609
BSTAR          = .69335E-4
MEAN_MOTION_DOT = .622E-5
MEAN_MOTION_DDOT = 0

CCSDS_OMM_VERS = 2.0
CREATION_DATE  = 
ORIGINATOR     = 

OBJECT_NAME    = COSMOS 1933
OBJECT_ID      = 1988-020A
CENTER_NAME    = EARTH
REF_FRAME      = TEME
TIME_SYSTEM    = UTC
MEAN_ELEMENT_THEORY = SGP/SGP4

EPOCH          = 2025-11-22T04:08:39.420672
MEAN_MOTION    = 15.16878454
ECCENTRICITY   = .0003867
INCLINATION    = 82.5138
RA_OF_ASC_NODE = 357.1978
ARG_OF_PERICENTER = 189.5544
MEAN_ANOMALY   = 170.5617

EPHEMERIS_TYPE = 0
CLASSIFICATION_TYPE = U
NORAD_CAT_ID   = 18958
ELEMENT_SET_NO = 999
REV_AT_EPOCH   = 3392
BSTAR          = .26041E-3
MEAN_MOTION_DOT = .5156E-4
MEAN_MOTION_DDOT = 0

CCSDS_OMM_VERS = 2.0
CREATION_DATE  = 
ORIGINATOR     = 

OBJECT_NAME    = SL-3 R/B
OBJECT_ID      = 1988-032B
CENTER_NAME    = EARTH
REF_FRAME      = TEME
TIME_SYSTEM    = UTC
MEAN_ELEMENT_THEORY = SGP/SGP4

EPOCH          = 2025-11-22T08:51:10.445760
MEAN_MOTION    = 15.18448471
ECCENTRICITY   = .002497
INCLINATION    = 97.5061
RA_OF_ASC_NODE = 305.2369
ARG_OF_PERICENTER = 246.6264
MEAN_ANOMALY   = 113.2343

EPHEMERIS_TYPE = 0
CLASSIFICATION_TYPE = U
NORAD_CAT_ID   = 19046
ELEMENT_SET_NO = 999
REV_AT_EPOCH   = 3581
BSTAR          = .3251E-3
MEAN_MOTION_DOT = .6681E-4
MEAN_MOTION_DDOT = 0

CCSDS_OMM_VERS = 2.0
CREATION_DATE  = 
ORIGINATOR     = 

OBJECT_NAME    = SL-16 R/B
OBJECT_ID      = 1988-039B
CENTER_NAME    = EARTH
REF_FRAME      = TEME
TIME_SYSTEM    = UTC
MEAN_ELEMENT_THEORY = SGP/SGP4

EPOCH          = 2025-11-22T07:29:56.793696
MEAN_MOTION    = 14.19591539
ECCENTRICITY   = .0020562
INCLINATION    = 71.0142
RA_OF_ASC_NODE = 295.5897
ARG_OF_PERICENTER = 150.3009
MEAN_ANOMALY   = 209.9288

EPHEMERIS_TYPE = 0
CLASSIFICATION_TYPE = U
NORAD_CAT_ID   = 19120
ELEMENT_SET_NO = 999
REV_AT_EPOCH   = 94314
BSTAR          = .10765E-3
MEAN_MOTION_DOT = .18E-5
MEAN_MOTION_DDOT = 0

CCSDS_OMM_VERS = 2.0
CREATION_DATE  = 
ORIGINATOR     = 

OBJECT_NAME    = COSMOS 1953
OBJECT_ID      = 1988-050A
CENTER_NAME    = EARTH
REF_FRAME      = TEME
TIME_SYSTEM    = UTC
MEAN_ELEMENT_THEORY = SGP/SGP4

EPOCH          = 2025-11-22T07:42:43.171200
MEAN_MOTION    = 15.26598675
ECCENTRICITY   = .0013215
INCLINATION    = 82.5088
RA_OF_ASC_NODE = 266.0626
ARG_OF_PERICENTER = 133.8243
MEAN_ANOMALY   = 226.4091

EPHEMERIS_TYPE = 0
CLASSIFICATION_TYPE = U
NORAD_CAT_ID   = 19210
ELEMENT_SET_NO = 999
REV_AT_EPOCH   = 2139
BSTAR          = .26781E-3
MEAN_MOTION_DOT = .7059E-4
MEAN_MOTION_DDOT = 0

CCSDS_OMM_VERS = 2.0
CREATION_DATE  = 
ORIGINATOR     = 

OBJECT_NAME    = SL-8 R/B
OBJECT_ID      = 1988-053B
CENTER_NAME    = EARTH
REF_FRAME      = TEME
TIME_SYSTEM    = UTC
MEAN_ELEMENT_THEORY = SGP/SGP4

EPOCH          = 2025-11-22T09:28:19.030944
MEAN_MOTION    = 14.38841914
ECCENTRICITY   = .0019605
INCLINATION    = 74.0467
RA_OF_ASC_NODE = 310.2173
ARG_OF_PERICENTER = 161.1608
MEAN_ANOMALY   = 351.0694

EPHEMERIS_TYPE = 0
CLASSIFICATION_TYPE = U
NORAD_CAT_ID   = 19257
ELEMENT_SET_NO = 999
REV_AT_EPOCH   = 96116
BSTAR          = .89618E-4
MEAN_MOTION_DOT = .25E-5
MEAN_MOTION_DDOT = 0

CCSDS_OMM_VERS = 2.0
CREATION_DATE  = 
ORIGINATOR     = 

OBJECT_NAME    = COSMOS 1975
OBJECT_ID      = 1988-093A
CENTER_NAME    = EARTH
REF_FRAME      = TEME
TIME_SYSTEM    = UTC
MEAN_ELEMENT_THEORY = SGP/SGP4

EPOCH          = 2025-11-22T04:39:46.747584
MEAN_MOTION    = 15.26030688
ECCENTRICITY   = .0011058
INCLINATION    = 82.5219
RA_OF_ASC_NODE = 225.3866
ARG_OF_PERICENTER = 179.6585
MEAN_ANOMALY   = 180.4663

EPHEMERIS_TYPE = 0
CLASSIFICATION_TYPE = U
NORAD_CAT_ID   = 19573
ELEMENT_SET_NO = 999
REV_AT_EPOCH   = 300
BSTAR          = .41854E-3
MEAN_MOTION_DOT = .10822E-3
MEAN_MOTION_DDOT = 0

CCSDS_OMM_VERS = 2.0
CREATION_DATE  = 
ORIGINATOR     = 

OBJECT_NAME    = SL-14 R/B
OBJECT_ID      = 1988-093B
CENTER_NAME    = EARTH
REF_FRAME      = TEME
TIME_SYSTEM    = UTC
MEAN_ELEMENT_THEORY = SGP/SGP4

EPOCH          = 2025-11-22T00:58:04.580256
MEAN_MOTION    = 14.85517603
ECCENTRICITY   = .0021689
INCLINATION    = 82.5292
RA_OF_ASC_NODE = 143.0928
ARG_OF_PERICENTER = 37.7871
MEAN_ANOMALY   = 84.0375

EPHEMERIS_TYPE = 0
CLASSIFICATION_TYPE = U
NORAD_CAT_ID   = 19574
ELEMENT_SET_NO = 999
REV_AT_EPOCH   = 98505
BSTAR          = .5676E-4
MEAN_MOTION_DOT = .516E-5
MEAN_MOTION_DDOT = 0

CCSDS_OMM_VERS = 2.0
CREATION_DATE  = 
ORIGINATOR     = 

OBJECT_NAME    = SL-16 R/B
OBJECT_ID      = 1988-102B
CENTER_NAME    = EARTH
REF_FRAME      = TEME
TIME_SYSTEM    = UTC
MEAN_ELEMENT_THEORY = SGP/SGP4

EPOCH          = 2025-11-22T11:14:39.569856
MEAN_MOTION    = 14.16133561
ECCENTRICITY   = .0014203
INCLINATION    = 71.0010
RA_OF_ASC_NODE = 17.0963
ARG_OF_PERICENTER = 183.3817
MEAN_ANOMALY   = 176.7212

EPHEMERIS_TYPE = 0
CLASSIFICATION_TYPE = U
NORAD_CAT_ID   = 19650
ELEMENT_SET_NO = 999
REV_AT_EPOCH   = 91171
BSTAR          = .1841E-3
MEAN_MOTION_DOT = .317E-5
MEAN_MOTION_DDOT = 0

CCSDS_OMM_VERS = 2.0
CREATION_DATE  = 
ORIGINATOR     = 

OBJECT_NAME    = INTERCOSMOS 24
OBJECT_ID      = 1989-080A
CENTER_NAME    = EARTH
REF_FRAME      = TEME
TIME_SYSTEM    = UTC
MEAN_ELEMENT_THEORY = SGP/SGP4

EPOCH          = 2025-11-22T09:42:33.566688
MEAN_MOTION    = 12.59389892
ECCENTRICITY   = .1188437
INCLINATION    = 82.6055
RA_OF_ASC_NODE = 174.1754
ARG_OF_PERICENTER = 181.6850
MEAN_ANOMALY   = 178.0075

EPHEMERIS_TYPE = 0
CLASSIFICATION_TYPE = U
NORAD_CAT_ID   = 20261
ELEMENT_SET_NO = 999
REV_AT_EPOCH   = 65329
BSTAR          = .26269E-3
MEAN_MOTION_DOT = .904E-5
MEAN_MOTION_DDOT = 0

CCSDS_OMM_VERS = 2.0
CREATION_DATE  = 
ORIGINATOR     = 

OBJECT_NAME    = SL-14 R/B
OBJECT_ID      = 1989-080C
CENTER_NAME    = EARTH
REF_FRAME      = TEME
TIME_SYSTEM    = UTC
MEAN_ELEMENT_THEORY = SGP/SGP4

EPOCH          = 2025-11-22T04:22:21.458784
MEAN_MOTION    = 12.50389732
ECCENTRICITY   = .1231058
INCLINATION    = 82.5939
RA_OF_ASC_NODE = 242.2128
ARG_OF_PERICENTER = 70.5581
MEAN_ANOMALY   = 302.4201

EPHEMERIS_TYPE = 0
CLASSIFICATION_TYPE = U
NORAD_CAT_ID   = 20262
ELEMENT_SET_NO = 999
REV_AT_EPOCH   = 64671
BSTAR          = .12911E-3
MEAN_MOTION_DOT = .458E-5
MEAN_MOTION_DDOT = 0

CCSDS_OMM_VERS = 2.0
CREATION_DATE  = 
ORIGINATOR     = 

OBJECT_NAME    = DELTA 1 R/B
OBJECT_ID      = 1989-089B
CENTER_NAME    = EARTH
REF_FRAME      = TEME
TIME_SYSTEM    = UTC
MEAN_ELEMENT_THEORY = SGP/SGP4

EPOCH          = 2025-11-22T05:19:00.765696
MEAN_MOTION    = 14.50548234
ECCENTRICITY   = .0070732
INCLINATION    = 97.0768
RA_OF_ASC_NODE = 185.7093
ARG_OF_PERICENTER = 101.8943
MEAN_ANOMALY   = 259.0197

EPHEMERIS_TYPE = 0
CLASSIFICATION_TYPE = U
NORAD_CAT_ID   = 20323
ELEMENT_SET_NO = 999
REV_AT_EPOCH   = 88015
BSTAR          = .11464E-3
MEAN_MOTION_DOT = .429E-5
MEAN_MOTION_DDOT = 0

